OBJECT_NAME,OBJECT_ID,EPOCH,MEAN_MOTION,ECCENTRICITY,INCLINATION,RA_OF_ASC_NODE,ARG_OF_PERICENTER,MEAN_ANOMALY,EPHEMERIS_TYPE,CLASSIFICATION_TYPE,NORAD_CAT_ID,ELEMENT_SET_NO,REV_AT_EPOCH,BSTAR,MEAN_MOTION_DOT,MEAN_MOTION_DDOT
TIANMU-1 15,2024-004A,2025-09-24T23:48:08.125344,15.23122174,.00060868,97.4674,89.8091,196.5537,163.5502,0,U,58700,999,9535,.4812246E-3,.11299E-3,0
TIANMU-1 16,2024-004B,2025-09-24T23:21:37.155744,15.23168148,.00062731,97.4612,89.2519,202.4850,157.6113,0,U,58701,999,9535,.48058729E-3,.11299E-3,0
TIANMU-1 17,2024-004C,2025-09-24T22:53:19.197024,15.23096978,.00053201,97.4646,89.6163,191.0009,169.1112,0,U,58702,999,9534,.45630703E-3,.107E-3,0
TIANMU-1 18,2024-004D,2025-09-25T00:05:43.567008,15.23199735,.00050804,97.4664,89.8402,187.9704,172.1453,0,U,58703,999,9535,.45733458E-3,.10756E-3,0
INSAT-3DS,2024-033A,2025-09-24T22:47:53.952000,1.00269089,.00013995,0.0180,189.4253,356.7422,241.8926,0,U,58990,999,4440,0,0,0
METEOR-M2 4,2024-039A,2025-09-24T23:46:06.491424,14.22381986,.00063395,98.6620,226.1884,210.2757,149.8055,0,U,59051,999,8156,.58604657E-4,.87E-6,0
GOES 19,2024-119A,2025-09-22T09:32:38.785632,1.00270700,.00006858,0.0477,343.3152,282.7486,163.3997,0,U,60133,999,427,0,-.255E-5,0
