TIANMU-1 15             
1 58700U 24004A   25267.99176071  .00011299  00000+0  48122-3 0  9993
2 58700  97.4674  89.8091 0006086 196.5537 163.5502 15.23122174 95352
TIANMU-1 16             
1 58701U 24004B   25267.97334671  .00011299  00000+0  48059-3 0  9993
2 58701  97.4612  89.2519 0006273 202.4850 157.6113 15.23168148 95350
TIANMU-1 17             
1 58702U 24004C   25267.95369441  .00010700  00000+0  45631-3 0  9994
2 58702  97.4646  89.6163 0005320 191.0009 169.1112 15.23096978 95345
TIANMU-1 18             
1 58703U 24004D   25268.00397647  .00010756  00000+0  45733-3 0  9995
2 58703  97.4664  89.8402 0005080 187.9704 172.1453 15.23199735 95351
INSAT-3DS               
1 58990U 24033A   25267.94993000  .00000000  00000+0  00000+0 0  9997
2 58990   0.0180 189.4253 0001399 356.7422 241.8926  1.00269089 44404
METEOR-M2 4             
1 59051U 24039A   25267.99035291  .00000087  00000+0  58605-4 0  9990
2 59051  98.6620 226.1884 0006339 210.2757 149.8055 14.22381986 81565
GOES 19                 
1 60133U 24119A   25265.39767113 -.00000255  00000+0  00000+0 0  9998
2 60133   0.0477 343.3152 0000685 282.7486 163.3997  1.00270700  4278
